{
  "type": "FeatureCollection",
  "features": [
    {
      "type": "Feature",
      "properties": {
        "norad_id": 33791,
        "name": "COSMOS 2251 DEB",
        "group": "cosmos-2251-debris",
        "lat": 51.17589887848377,
        "lon": 40.72036372185971,
        "alt_km": 763.3718619741521,
        "timestamp": "2025-12-22T05:49:03.893738+00:00",
        "meta_object_name": "COSMOS 2251 DEB",
        "meta_object_id": "1993-036AG",
        "meta_epoch": "2025-12-21T07:59:26.976768",
        "meta_mean_motion": 14.43165354,
        "meta_eccentricity": 0.0030231,
        "meta_inclination": 74.1746,
        "meta_ra_of_asc_node": 21.7562,
        "meta_arg_of_pericenter": 217.3384,
        "meta_mean_anomaly": 153.8599,
        "meta_ephemeris_type": 0,
        "meta_classification_type": "U",
        "meta_norad_cat_id": 33791,
        "meta_element_set_no": 999,
        "meta_rev_at_epoch": 88176,
        "meta_bstar": 0.00063473,
        "meta_mean_motion_dot": 2.119e-05,
        "meta_mean_motion_ddot": 0,
        "tle_line1": "1 33791U 93036AG  25355.33295112  .00002119  00000+0  63473-3 0  9998",
        "tle_line2": "2 33791  74.1746  21.7562 0030231 217.3384 153.8599 14.43165354881760"
      },
      "geometry": {
        "type": "Point",
        "coordinates": [
          40.72036372185971,
          51.17589887848377
        ]
      }
    },
    {
      "type": "Feature",
      "properties": {
        "norad_id": 33792,
        "name": "COSMOS 2251 DEB",
        "group": "cosmos-2251-debris",
        "lat": 14.941579479485954,
        "lon": -25.41093468596746,
        "alt_km": 782.1515502271159,
        "timestamp": "2025-12-22T05:49:03.893748+00:00",
        "meta_object_name": "COSMOS 2251 DEB",
        "meta_object_id": "1993-036AH",
        "meta_epoch": "2025-12-21T09:03:58.235904",
        "meta_mean_motion": 13.45838014,
        "meta_eccentricity": 0.04275868,
        "meta_inclination": 73.9011,
        "meta_ra_of_asc_node": 331.5495,
        "meta_arg_of_pericenter": 34.6161,
        "meta_mean_anomaly": 114.7735,
        "meta_ephemeris_type": 0,
        "meta_classification_type": "U",
        "meta_norad_cat_id": 33792,
        "meta_element_set_no": 999,
        "meta_rev_at_epoch": 82558,
        "meta_bstar": 0.00089392401,
        "meta_mean_motion_dot": 9.07e-06,
        "meta_mean_motion_ddot": 0,
        "tle_line1": "1 33792U 93036AH  25355.37775736  .00000907  00000+0  89392-3 0  9999",
        "tle_line2": "2 33792  73.9011 331.5495 0427586  34.6161 114.7735 13.45838014825583"
      },
      "geometry": {
        "type": "Point",
        "coordinates": [
          -25.41093468596746,
          14.941579479485954
        ]
      }
    },
    {
      "type": "Feature",
      "properties": {
        "norad_id": 33793,
        "name": "COSMOS 2251 DEB",
        "group": "cosmos-2251-debris",
        "lat": 46.151199959533784,
        "lon": -64.75575174289398,
        "alt_km": 843.5352741830657,
        "timestamp": "2025-12-22T05:49:03.893758+00:00",
        "meta_object_name": "COSMOS 2251 DEB",
        "meta_object_id": "1993-036AJ",
        "meta_epoch": "2025-12-21T19:41:23.771328",
        "meta_mean_motion": 14.27751014,
        "meta_eccentricity": 0.0078826,
        "meta_inclination": 73.9805,
        "meta_ra_of_asc_node": 133.4134,
        "meta_arg_of_pericenter": 281.7338,
        "meta_mean_anomaly": 201.8982,
        "meta_ephemeris_type": 0,
        "meta_classification_type": "U",
        "meta_norad_cat_id": 33793,
        "meta_element_set_no": 999,
        "meta_rev_at_epoch": 87336,
        "meta_bstar": 0.00056725,
        "meta_mean_motion_dot": 1.421e-05,
        "meta_mean_motion_ddot": 0,
        "tle_line1": "1 33793U 93036AJ  25355.82041402  .00001421  00000+0  56725-3 0  9992",
        "tle_line2": "2 33793  73.9805 133.4134 0078826 281.7338 201.8982 14.27751014873360"
      },
      "geometry": {
        "type": "Point",
        "coordinates": [
          -64.75575174289398,
          46.151199959533784
        ]
      }
    },
    {
      "type": "Feature",
      "properties": {
        "norad_id": 33795,
        "name": "COSMOS 2251 DEB",
        "group": "cosmos-2251-debris",
        "lat": -40.05270024898239,
        "lon": -108.82228716152204,
        "alt_km": 553.1373446970083,
        "timestamp": "2025-12-22T05:49:03.893768+00:00",
        "meta_object_name": "COSMOS 2251 DEB",
        "meta_object_id": "1993-036AL",
        "meta_epoch": "2025-12-21T13:25:17.579136",
        "meta_mean_motion": 15.05786247,
        "meta_eccentricity": 0.0030425,
        "meta_inclination": 74.0324,
        "meta_ra_of_asc_node": 58.65,
        "meta_arg_of_pericenter": 139.037,
        "meta_mean_anomaly": 340.7263,
        "meta_ephemeris_type": 0,
        "meta_classification_type": "U",
        "meta_norad_cat_id": 33795,
        "meta_element_set_no": 999,
        "meta_rev_at_epoch": 90154,
        "meta_bstar": 0.00093751,
        "meta_mean_motion_dot": 0.00013716,
        "meta_mean_motion_ddot": 0,
        "tle_line1": "1 33795U 93036AL  25355.55923124  .00013716  00000+0  93751-3 0  9994",
        "tle_line2": "2 33795  74.0324  58.6500 0030425 139.0370 340.7263 15.05786247901549"
      },
      "geometry": {
        "type": "Point",
        "coordinates": [
          -108.82228716152204,
          -40.05270024898239
        ]
      }
    },
    {
      "type": "Feature",
      "properties": {
        "norad_id": 33797,
        "name": "COSMOS 2251 DEB",
        "group": "cosmos-2251-debris",
        "lat": -26.74416962811365,
        "lon": -154.81281427803145,
        "alt_km": 716.8767456878095,
        "timestamp": "2025-12-22T05:49:03.893778+00:00",
        "meta_object_name": "COSMOS 2251 DEB",
        "meta_object_id": "1993-036AN",
        "meta_epoch": "2025-12-21T13:08:12.862176",
        "meta_mean_motion": 14.57876137,
        "meta_eccentricity": 0.0060395,
        "meta_inclination": 74.0465,
        "meta_ra_of_asc_node": 18.2197,
        "meta_arg_of_pericenter": 103.4089,
        "meta_mean_anomaly": 57.4308,
        "meta_ephemeris_type": 0,
        "meta_classification_type": "U",
        "meta_norad_cat_id": 33797,
        "meta_element_set_no": 999,
        "meta_rev_at_epoch": 89113,
        "meta_bstar": 0.00028571,
        "meta_mean_motion_dot": 1.312e-05,
        "meta_mean_motion_ddot": 0,
        "tle_line1": "1 33797U 93036AN  25355.54737109  .00001312  00000+0  28571-3 0  9998",
        "tle_line2": "2 33797  74.0465  18.2197 0060395 103.4089  57.4308 14.57876137891131"
      },
      "geometry": {
        "type": "Point",
        "coordinates": [
          -154.81281427803145,
          -26.74416962811365
        ]
      }
    },
    {
      "type": "Feature",
      "properties": {
        "norad_id": 33798,
        "name": "COSMOS 2251 DEB",
        "group": "cosmos-2251-debris",
        "lat": -5.145652905035335,
        "lon": 116.72805580947346,
        "alt_km": 776.1809070443705,
        "timestamp": "2025-12-22T05:49:03.893788+00:00",
        "meta_object_name": "COSMOS 2251 DEB",
        "meta_object_id": "1993-036AP",
        "meta_epoch": "2025-12-21T18:54:42.371424",
        "meta_mean_motion": 14.44625065,
        "meta_eccentricity": 0.0092379,
        "meta_inclination": 74.0292,
        "meta_ra_of_asc_node": 119.0519,
        "meta_arg_of_pericenter": 238.4578,
        "meta_mean_anomaly": 273.0611,
        "meta_ephemeris_type": 0,
        "meta_classification_type": "U",
        "meta_norad_cat_id": 33798,
        "meta_element_set_no": 999,
        "meta_rev_at_epoch": 88724,
        "meta_bstar": 0.00014768,
        "meta_mean_motion_dot": 5.09e-06,
        "meta_mean_motion_ddot": 0,
        "tle_line1": "1 33798U 93036AP  25355.78799041  .00000509  00000+0  14768-3 0  9998",
        "tle_line2": "2 33798  74.0292 119.0519 0092379 238.4578 273.0611 14.44625065887245"
      },
      "geometry": {
        "type": "Point",
        "coordinates": [
          116.72805580947346,
          -5.145652905035335
        ]
      }
    },
    {
      "type": "Feature",
      "properties": {
        "norad_id": 33799,
        "name": "COSMOS 2251 DEB",
        "group": "cosmos-2251-debris",
        "lat": -4.7528090060418675,
        "lon": 61.71075659407185,
        "alt_km": 644.6604237863821,
        "timestamp": "2025-12-22T05:49:03.893799+00:00",
        "meta_object_name": "COSMOS 2251 DEB",
        "meta_object_id": "1993-036AQ",
        "meta_epoch": "2025-12-21T15:48:11.376000",
        "meta_mean_motion": 14.79726083,
        "meta_eccentricity": 0.0022581,
        "meta_inclination": 74.0319,
        "meta_ra_of_asc_node": 64.2244,
        "meta_arg_of_pericenter": 131.7844,
        "meta_mean_anomaly": 354.2023,
        "meta_ephemeris_type": 0,
        "meta_classification_type": "U",
        "meta_norad_cat_id": 33799,
        "meta_element_set_no": 999,
        "meta_rev_at_epoch": 88943,
        "meta_bstar": 0.00088918,
        "meta_mean_motion_dot": 6.685e-05,
        "meta_mean_motion_ddot": 0,
        "tle_line1": "1 33799U 93036AQ  25355.65846500  .00006685  00000+0  88918-3 0  9997",
        "tle_line2": "2 33799  74.0319  64.2244 0022581 131.7844 354.2023 14.79726083889433"
      },
      "geometry": {
        "type": "Point",
        "coordinates": [
          61.71075659407185,
          -4.7528090060418675
        ]
      }
    }
  ]
}